start=new Date('2022-10-23T00:00:00.000Z').valueOf();
sats=[{"CENTER_NAME":"EARTH","APOAPSIS":"548.141","FILE":"3629797","NORAD_CAT_ID":"46168","MEAN_ANOMALY":"275.9890","MEAN_MOTION":"15.06404258","OBJECT_NAME":"STARLINK-1627","PERIAPSIS":"546.260","REF_FRAME":"TEME","RCS_SIZE":"LARGE","REV_AT_EPOCH":"12077","EPOCH":"2022-10-22T17:20:24.911520","OBJECT_TYPE":"PAYLOAD","DECAY_DATE":null,"SITE":"AFETR","GP_ID":"215922528","COUNTRY_CODE":"US","CLASSIFICATION_TYPE":"U","ECCENTRICITY":"0.00013580","TIME_SYSTEM":"UTC","RA_OF_ASC_NODE":"46.1973","BSTAR":"0.00006303200000","TLE_LINE2":"2 46168  53.0566  46.1973 0001358  84.1254 275.9890 15.06404258120775","ELEMENT_SET_NO":"999","TLE_LINE1":"1 46168U 20057BD  22295.72251055  .00000658  00000-0  63032-4 0  9993","SEMIMAJOR_AXIS":"6925.336","EPHEMERIS_TYPE":"0","PERIOD":"95.592","LAUNCH_DATE":"2020-08-18","ARG_OF_PERICENTER":"84.1254","INCLINATION":"53.0566","MEAN_ELEMENT_THEORY":"SGP4","OBJECT_ID":"2020-057BD","MEAN_MOTION_DOT":"0.00000658","MEAN_MOTION_DDOT":"0.0000000000000"},{"MEAN_MOTION_DOT":"0.00001424","OBJECT_ID":"2020-057BE","MEAN_ELEMENT_THEORY":"SGP4","MEAN_MOTION_DDOT":"0.0000000000000","EPHEMERIS_TYPE":"0","PERIOD":"95.644","ELEMENT_SET_NO":"999","TLE_LINE1":"1 46169U 20057BE  22295.82946651  .00001424  00000-0  11691-3 0  9993","SEMIMAJOR_AXIS":"6927.857","ARG_OF_PERICENTER":"119.1481","LAUNCH_DATE":"2020-08-18","INCLINATION":"53.0005","DECAY_DATE":null,"OBJECT_TYPE":"PAYLOAD","SITE":"AFETR","GP_ID":"215923778","COUNTRY_CODE":"US","RCS_SIZE":"LARGE","REV_AT_EPOCH":"12004","EPOCH":"2022-10-22T19:54:25.906464","TLE_LINE2":"2 46169  53.0005  95.6217 0001499 119.1481 240.9657 15.05581896120047","BSTAR":"0.00011691000000","ECCENTRICITY":"0.00014990","CLASSIFICATION_TYPE":"U","TIME_SYSTEM":"UTC","RA_OF_ASC_NODE":"95.6217","CENTER_NAME":"EARTH","APOAPSIS":"550.761","REF_FRAME":"TEME","NORAD_CAT_ID":"46169","FILE":"3629797","OBJECT_NAME":"STARLINK-1628","PERIAPSIS":"548.684","MEAN_MOTION":"15.05581896","MEAN_ANOMALY":"240.9657"},{"NORAD_CAT_ID":"46171","FILE":"3629797","PERIAPSIS":"546.364","OBJECT_NAME":"STARLINK-1633","MEAN_ANOMALY":"282.5688","MEAN_MOTION":"15.06390266","REF_FRAME":"TEME","APOAPSIS":"548.123","CENTER_NAME":"EARTH","ECCENTRICITY":"0.00012700","CLASSIFICATION_TYPE":"U","RA_OF_ASC_NODE":"75.8227","TIME_SYSTEM":"UTC","TLE_LINE2":"2 46171  53.0555  75.8227 0001270  77.5443 282.5688 15.06390266121624","BSTAR":"0.00009945300000","RCS_SIZE":"LARGE","REV_AT_EPOCH":"12162","EPOCH":"2022-10-22T18:51:57.221280","SITE":"AFETR","DECAY_DATE":null,"OBJECT_TYPE":"PAYLOAD","COUNTRY_CODE":"US","GP_ID":"215923529","ARG_OF_PERICENTER":"77.5443","LAUNCH_DATE":"2020-08-18","INCLINATION":"53.0555","ELEMENT_SET_NO":"999","TLE_LINE1":"1 46171U 20057BG  22295.78607895  .00001200  00000-0  99453-4 0  9990","SEMIMAJOR_AXIS":"6925.378","EPHEMERIS_TYPE":"0","PERIOD":"95.593","MEAN_MOTION_DDOT":"0.0000000000000","MEAN_ELEMENT_THEORY":"SGP4","OBJECT_ID":"2020-057BG","MEAN_MOTION_DOT":"0.00001200"},{"APOAPSIS":"548.248","CENTER_NAME":"EARTH","REF_FRAME":"TEME","NORAD_CAT_ID":"46172","FILE":"3629797","PERIAPSIS":"546.152","OBJECT_NAME":"STARLINK-1635","MEAN_ANOMALY":"262.7994","MEAN_MOTION":"15.06404328","SITE":"AFETR","DECAY_DATE":null,"OBJECT_TYPE":"PAYLOAD","COUNTRY_CODE":"US","GP_ID":"215922278","RCS_SIZE":"LARGE","REV_AT_EPOCH":"12162","EPOCH":"2022-10-22T19:13:11.249760","TLE_LINE2":"2 46172  53.0555  75.7492 0001513  97.3167 262.7994 15.06404328121626","BSTAR":"0.00006469300000","ECCENTRICITY":"0.00015130","CLASSIFICATION_TYPE":"U","TIME_SYSTEM":"UTC","RA_OF_ASC_NODE":"75.7492","EPHEMERIS_TYPE":"0","PERIOD":"95.592","TLE_LINE1":"1 46172U 20057BH  22295.80082465  .00000682  00000-0  64693-4 0  9995","ELEMENT_SET_NO":"999","SEMIMAJOR_AXIS":"6925.335","ARG_OF_PERICENTER":"97.3167","LAUNCH_DATE":"2020-08-18","INCLINATION":"53.0555","OBJECT_ID":"2020-057BH","MEAN_MOTION_DOT":"0.00000682","MEAN_ELEMENT_THEORY":"SGP4","MEAN_MOTION_DDOT":"0.0000000000000"},{"ARG_OF_PERICENTER":"100.0142","LAUNCH_DATE":"2020-08-18","INCLINATION":"53.0533","TLE_LINE1":"1 46173U 20057BJ  22295.84690491  .00001029  00000-0  87993-4 0  9998","ELEMENT_SET_NO":"999","SEMIMAJOR_AXIS":"6925.354","EPHEMERIS_TYPE":"0","PERIOD":"95.592","MEAN_MOTION_DDOT":"0.0000000000000","MEAN_ELEMENT_THEORY":"SGP4","OBJECT_ID":"2020-057BJ","MEAN_MOTION_DOT":"0.00001029","NORAD_CAT_ID":"46173","FILE":"3629797","OBJECT_NAME":"STARLINK-1640","PERIAPSIS":"546.254","MEAN_ANOMALY":"260.1004","MEAN_MOTION":"15.06398077","REF_FRAME":"TEME","CENTER_NAME":"EARTH","APOAPSIS":"548.185","ECCENTRICITY":"0.00013940","CLASSIFICATION_TYPE":"U","TIME_SYSTEM":"UTC","RA_OF_ASC_NODE":"95.5520","TLE_LINE2":"2 46173  53.0533  95.5520 0001394 100.0142 260.1004 15.06398077120094","BSTAR":"0.00008799300000","RCS_SIZE":"LARGE","REV_AT_EPOCH":"12009","EPOCH":"2022-10-22T20:19:32.584224","SITE":"AFETR","DECAY_DATE":null,"OBJECT_TYPE":"PAYLOAD","GP_ID":"215923028","COUNTRY_CODE":"US"},{"EPOCH":"2022-10-22T20:30:09.074016","RCS_SIZE":"LARGE","REV_AT_EPOCH":"12009","COUNTRY_CODE":"US","GP_ID":"215923279","OBJECT_TYPE":"PAYLOAD","DECAY_DATE":null,"SITE":"AFETR","RA_OF_ASC_NODE":"95.5205","TIME_SYSTEM":"UTC","ECCENTRICITY":"0.00013600","CLASSIFICATION_TYPE":"U","TLE_LINE2":"2 46174  53.0533  95.5205 0001360  91.8695 268.2450 15.06403576120093","BSTAR":"0.00002134500000","APOAPSIS":"548.144","CENTER_NAME":"EARTH","OBJECT_NAME":"STARLINK-1641","PERIAPSIS":"546.261","MEAN_ANOMALY":"268.2450","MEAN_MOTION":"15.06403576","NORAD_CAT_ID":"46174","FILE":"3629797","REF_FRAME":"TEME","MEAN_ELEMENT_THEORY":"SGP4","MEAN_MOTION_DOT":"0.00000037","OBJECT_ID":"2020-057BK","MEAN_MOTION_DDOT":"0.0000000000000","SEMIMAJOR_AXIS":"6925.338","ELEMENT_SET_NO":"999","TLE_LINE1":"1 46174U 20057BK  22295.85427169  .00000037  00000-0  21345-4 0  9997","PERIOD":"95.592","EPHEMERIS_TYPE":"0","INCLINATION":"53.0533","ARG_OF_PERICENTER":"91.8695","LAUNCH_DATE":"2020-08-18"},{"CENTER_NAME":"EARTH","APOAPSIS":"548.328","REF_FRAME":"TEME","NORAD_CAT_ID":"46325","FILE":"3629797","PERIAPSIS":"546.140","OBJECT_NAME":"STARLINK-1734","MEAN_ANOMALY":"262.5377","MEAN_MOTION":"15.06393415","DECAY_DATE":null,"OBJECT_TYPE":"PAYLOAD","SITE":"AFETR","GP_ID":"215922789","COUNTRY_CODE":"US","REV_AT_EPOCH":"11958","RCS_SIZE":"LARGE","EPOCH":"2022-10-22T20:46:45.209856","TLE_LINE2":"2 46325  53.0534 110.4773 0001580  97.5791 262.5377 15.06393415119580","BSTAR":"0.00032033000000","ECCENTRICITY":"0.00015800","CLASSIFICATION_TYPE":"U","RA_OF_ASC_NODE":"110.4773","TIME_SYSTEM":"UTC","EPHEMERIS_TYPE":"0","PERIOD":"95.593","TLE_LINE1":"1 46325U 20062A   22295.86580104  .00004492  00000-0  32033-3 0  9995","ELEMENT_SET_NO":"999","SEMIMAJOR_AXIS":"6925.369","ARG_OF_PERICENTER":"97.5791","LAUNCH_DATE":"2020-09-03","INCLINATION":"53.0534","OBJECT_ID":"2020-062A","MEAN_MOTION_DOT":"0.00004492","MEAN_ELEMENT_THEORY":"SGP4","MEAN_MOTION_DDOT":"0.0000000000000"},{"MEAN_MOTION_DDOT":"0.0000000000000","OBJECT_ID":"2020-062B","MEAN_MOTION_DOT":"-0.00000295","MEAN_ELEMENT_THEORY":"SGP4","INCLINATION":"53.0538","ARG_OF_PERICENTER":"105.2327","LAUNCH_DATE":"2020-09-03","PERIOD":"95.592","EPHEMERIS_TYPE":"0","SEMIMAJOR_AXIS":"6925.363","TLE_LINE1":"1 46326U 20062B   22295.86352905 -.00000295  00000-0 -88127-6 0  9999","ELEMENT_SET_NO":"999","TLE_LINE2":"2 46326  53.0538 155.7319 0001696 105.2327 254.8849 15.06395343118346","BSTAR":"-0.00000088127000","TIME_SYSTEM":"UTC","RA_OF_ASC_NODE":"155.7319","ECCENTRICITY":"0.00016960","CLASSIFICATION_TYPE":"U","GP_ID":"215922540","COUNTRY_CODE":"US","SITE":"AFETR","DECAY_DATE":null,"OBJECT_TYPE":"PAYLOAD","EPOCH":"2022-10-22T20:43:28.909920","RCS_SIZE":"LARGE","REV_AT_EPOCH":"11834","REF_FRAME":"TEME","PERIAPSIS":"546.053","OBJECT_NAME":"STARLINK-1654","MEAN_ANOMALY":"254.8849","MEAN_MOTION":"15.06395343","NORAD_CAT_ID":"46326","FILE":"3629797","CENTER_NAME":"EARTH","APOAPSIS":"548.402"},{"MEAN_MOTION_DDOT":"0.0000000000000","OBJECT_ID":"2020-062C","MEAN_MOTION_DOT":"0.00002572","MEAN_ELEMENT_THEORY":"SGP4","LAUNCH_DATE":"2020-09-03","ARG_OF_PERICENTER":"117.3434","INCLINATION":"53.0534","EPHEMERIS_TYPE":"0","PERIOD":"95.592","TLE_LINE1":"1 46327U 20062C   22295.88561081  .00002572  00000-0  19153-3 0  9997","ELEMENT_SET_NO":"999","SEMIMAJOR_AXIS":"6925.360","BSTAR":"0.00019153000000","TLE_LINE2":"2 46327  53.0534 155.3752 0001541 117.3434 242.7712 15.06396108118347","CLASSIFICATION_TYPE":"U","ECCENTRICITY":"0.00015410","RA_OF_ASC_NODE":"155.3752","TIME_SYSTEM":"UTC","DECAY_DATE":null,"OBJECT_TYPE":"PAYLOAD","SITE":"AFETR","GP_ID":"215923790","COUNTRY_CODE":"US","RCS_SIZE":"LARGE","REV_AT_EPOCH":"11834","EPOCH":"2022-10-22T21:15:16.773984","REF_FRAME":"TEME","FILE":"3629797","NORAD_CAT_ID":"46327","MEAN_ANOMALY":"242.7712","MEAN_MOTION":"15.06396108","OBJECT_NAME":"STARLINK-1673","PERIAPSIS":"546.158","CENTER_NAME":"EARTH","APOAPSIS":"548.293"},{"REV_AT_EPOCH":"11862","RCS_SIZE":"LARGE","EPOCH":"2022-10-22T20:46:05.385504","OBJECT_TYPE":"PAYLOAD","DECAY_DATE":null,"SITE":"AFETR","GP_ID":"215923541","COUNTRY_CODE":"US","ECCENTRICITY":"0.00013070","CLASSIFICATION_TYPE":"U","TIME_SYSTEM":"UTC","RA_OF_ASC_NODE":"135.4833","TLE_LINE2":"2 46328  53.0536 135.4833 0001307  99.9525 260.1611 15.06395263118629","BSTAR":"0.00009032800000","APOAPSIS":"548.133","CENTER_NAME":"EARTH","NORAD_CAT_ID":"46328","FILE":"3629797","PERIAPSIS":"546.323","OBJECT_NAME":"STARLINK-1686","MEAN_ANOMALY":"260.1611","MEAN_MOTION":"15.06395263","REF_FRAME":"TEME","MEAN_ELEMENT_THEORY":"SGP4","OBJECT_ID":"2020-062D","MEAN_MOTION_DOT":"0.00001064","MEAN_MOTION_DDOT":"0.0000000000000","TLE_LINE1":"1 46328U 20062D   22295.86534011  .00001064  00000-0  90328-4 0  9998","ELEMENT_SET_NO":"999","SEMIMAJOR_AXIS":"6925.363","EPHEMERIS_TYPE":"0","PERIOD":"95.592","ARG_OF_PERICENTER":"99.9525","LAUNCH_DATE":"2020-09-03","INCLINATION":"53.0536"}];
